[
	{
		"id": "5a81e4adfeff344f2722a642",
		"name": "Zelig Raffeorty",
		"emails": "zraffeorty0@yandex.ru",
		"address": {
			"street": "488 1st Lane",
			"city": "Beaverton",
			"state": "OR",
			"zip": "97075"
		}
	}, {
		"id": "5a81e4adfbf7f355c4f9e774",
		"name": "Pat Peyton",
		"emails": "ppeyton1@gizmodo.com",
		"address": {
			"street": "26978 Stoughton Lane",
			"city": "Roanoke",
			"state": "VA",
			"zip": "24048"
		}
	}, {
		"id": "5a81e4ad0d2385addfbac1d6",
		"name": "Rance Muzzini",
		"emails": "rmuzzini2@soup.io",
		"address": {
			"street": "44 Veith Trail",
			"city": "Fresno",
			"state": "CA",
			"zip": "93778"
		}
	}, {
		"id": "5a81e4ad3acc77a52b04dd27",
		"name": "Joelly Wetherell",
		"emails": "jwetherell3@symantec.com",
		"address": {
			"street": "25311 School Trail",
			"city": "Baltimore",
			"state": "MD",
			"zip": "21265"
		}
	}, {
		"id": "5a81e4ade23e14b3b8942b56",
		"name": "Kaylil Diggell",
		"emails": "kdiggell4@wufoo.com",
		"address": {
			"street": "3947 Redwing Way",
			"city": "Beaumont",
			"state": "TX",
			"zip": "77713"
		}
	}, {
		"id": "5a81e4ad96c1e452983cd2e2",
		"name": "Ginger Teager",
		"emails": "gteager5@google.it",
		"address": {
			"street": "6 Clove Place",
			"city": "Elmira",
			"state": "NY",
			"zip": "14905"
		}
	}, {
		"id": "5a81e4adaa870d799bae196c",
		"name": "Meggy Twist",
		"emails": "mtwist6@goodreads.com",
		"address": {
			"street": "90287 Saint Paul Alley",
			"city": "Dayton",
			"state": "OH",
			"zip": "45470"
		}
	}, {
		"id": "5a81e4adb414d933e714c59f",
		"name": "Jimmy Aspell",
		"emails": "jaspell7@admin.ch",
		"address": {
			"street": "2 Morrow Plaza",
			"city": "Mansfield",
			"state": "OH",
			"zip": "44905"
		}
	}, {
		"id": "5a81e4ad59df2a82f49da88f",
		"name": "Karleen Yaakov",
		"emails": "kyaakov8@instagram.com",
		"address": {
			"street": "4662 Northport Junction",
			"city": "Baltimore",
			"state": "MD",
			"zip": "21211"
		}
	}, {
		"id": "5a81e4ad91b8ce254df7c5ec",
		"name": "Bernadette Moogan",
		"emails": "bmoogan9@utexas.edu",
		"address": {
			"street": "55993 Westridge Road",
			"city": "Pensacola",
			"state": "FL",
			"zip": "32575"
		}
	}, {
		"id": "5a81e4ad140fc55b5563bc01",
		"name": "Junina Dingle",
		"emails": "jdinglea@google.fr",
		"address": {
			"street": "392 Manley Junction",
			"city": "Tallahassee",
			"state": "FL",
			"zip": "32304"
		}
	}, {
		"id": "5a81e4ad4a273974361d96df",
		"name": "Egor Dennison",
		"emails": "edennisonb@tripod.com",
		"address": {
			"street": "53 Fair Oaks Plaza",
			"city": "Hollywood",
			"state": "FL",
			"zip": "33028"
		}
	}, {
		"id": "5a81e4ad309d4cbce4fe7241",
		"name": "Ravid Lippiello",
		"emails": "rlippielloc@123-reg.co.uk",
		"address": {
			"street": "14121 Arrowood Place",
			"city": "Greensboro",
			"state": "NC",
			"zip": "27409"
		}
	}, {
		"id": "5a81e4adb269b2aa14be2544",
		"name": "Fancy Bucknall",
		"emails": "fbucknalld@spotify.com",
		"address": {
			"street": "6 Laurel Avenue",
			"city": "Tulsa",
			"state": "OK",
			"zip": "74156"
		}
	}, {
		"id": "5a81e4ad3c1e73abf28b8e0d",
		"name": "Sibley Bedinn",
		"emails": "sbedinne@seattletimes.com",
		"address": {
			"street": "61 Linden Street",
			"city": "Huntington",
			"state": "WV",
			"zip": "25716"
		}
	}, {
		"id": "5a81e4ad32fad451f9b53918",
		"name": "Lucilia Gallaccio",
		"emails": "lgallacciof@yandex.ru",
		"address": {
			"street": "854 Stone Corner Terrace",
			"city": "Wilkes Barre",
			"state": "PA",
			"zip": "18763"
		}
	}, {
		"id": "5a81e4ada04dc995c2207a4a",
		"name": "Marybelle Lakenden",
		"emails": "mlakendeng@shareasale.com",
		"address": {
			"street": "50 Moulton Crossing",
			"city": "Houston",
			"state": "TX",
			"zip": "77299"
		}
	}, {
		"id": "5a81e4ad069f4062d93278ae",
		"name": "Bria Brack",
		"emails": "bbrackh@homestead.com",
		"address": {
			"street": "4354 Ridgeview Center",
			"city": "Charlotte",
			"state": "NC",
			"zip": "28278"
		}
	}, {
		"id": "5a81e4ada7e468a0c281e49d",
		"name": "Johnathan Brayfield",
		"emails": "jbrayfieldi@joomla.org",
		"address": {
			"street": "73628 Hayes Road",
			"city": "Houston",
			"state": "TX",
			"zip": "77228"
		}
	}, {
		"id": "5a81e4adec76d1a4ab547269",
		"name": "Dionne Steffan",
		"emails": "dsteffanj@hugedomains.com",
		"address": {
			"street": "693 Del Sol Lane",
			"city": "Columbia",
			"state": "SC",
			"zip": "29240"
		}
	}, {
		"id": "5a81e4ad557e196929bc5681",
		"name": "Kittie Napton",
		"emails": "knaptonk@buzzfeed.com",
		"address": {
			"street": "091 Fieldstone Plaza",
			"city": "Philadelphia",
			"state": "PA",
			"zip": "19109"
		}
	}, {
		"id": "5a81e4ade2cc67896349545c",
		"name": "Sunny Rapinett",
		"emails": "srapinettl@netscape.com",
		"address": {
			"street": "4 Toban Junction",
			"city": "Des Moines",
			"state": "IA",
			"zip": "50362"
		}
	}, {
		"id": "5a81e4adfa017b7a59ad9f1b",
		"name": "Dorie Feighney",
		"emails": "dfeighneym@cornell.edu",
		"address": {
			"street": "159 Anzinger Circle",
			"city": "Louisville",
			"state": "KY",
			"zip": "40233"
		}
	}, {
		"id": "5a81e4adc2a73596c175a03e",
		"name": "Alejandrina Rableau",
		"emails": "arableaun@newsvine.com",
		"address": {
			"street": "08336 Northfield Street",
			"city": "Sacramento",
			"state": "CA",
			"zip": "94291"
		}
	}, {
		"id": "5a81e4addf83bca77813cea8",
		"name": "Eudora Doulton",
		"emails": "edoultono@census.gov",
		"address": {
			"street": "84295 Northwestern Terrace",
			"city": "Aurora",
			"state": "CO",
			"zip": "80045"
		}
	}, {
		"id": "5a81e4ad9e6c028c424a1768",
		"name": "Rem Ambrozik",
		"emails": "rambrozikp@ow.ly",
		"address": {
			"street": "074 Buell Pass",
			"city": "Brooklyn",
			"state": "NY",
			"zip": "11236"
		}
	}, {
		"id": "5a81e4adbc36851cbb25b73c",
		"name": "El Hardwell",
		"emails": "ehardwellq@wikia.com",
		"address": {
			"street": "42 Northview Road",
			"city": "San Bernardino",
			"state": "CA",
			"zip": "92405"
		}
	}, {
		"id": "5a81e4ad6846e31bb60a099b",
		"name": "Gisele Chorlton",
		"emails": "gchorltonr@usnews.com",
		"address": {
			"street": "2 Warrior Drive",
			"city": "Fort Lauderdale",
			"state": "FL",
			"zip": "33325"
		}
	}, {
		"id": "5a81e4ad1bb6d5a4e67d91c5",
		"name": "Maisie Cabrara",
		"emails": "mcabraras@mashable.com",
		"address": {
			"street": "3 Onsgard Parkway",
			"city": "Tucson",
			"state": "AZ",
			"zip": "85754"
		}
	}, {
		"id": "5a81e4ad8fd6c75be67f7ab4",
		"name": "Judas Crose",
		"emails": "jcroset@bravesites.com",
		"address": {
			"street": "58009 Dayton Lane",
			"city": "Charlotte",
			"state": "NC",
			"zip": "28220"
		}
	}
];